STARLINK-32121          
1 60264U 24131K   26068.27091357 -.00001798  00000+0 -48616-4 0  9990
2 60264  53.1616  54.4383 0001470  85.7966 274.3203 15.30188870 91701
GLOBAL-34               
1 68098U 26043A   26068.47466435  .00014018  00000+0  45822-3 0  9994
2 68098  42.0215  76.7399 0006884 289.2632  70.7460 15.31488019   538
